STARLINK-2022           
1 47643U 21012Z   24045.71980019  .00010692  00000+0  73541-3 0  9990
2 47643  53.0531 196.3219 0001240  95.6828 264.4302 15.06409183166628
